EUTELSAT 7A             
1 28187U 04008A   25322.48030810  .00000121  00000+0  00000+0 0  9998
2 28187   5.2949  74.5245 0000869 138.8300 238.1554  1.00269451 79248
EUTELSAT 174A           
1 28924U 05052A   25322.55459766  .00000029  00000+0  00000+0 0  9997
2 28924   3.6854  79.1354 0006356 160.6853 191.7599  1.00275051 50211
EUTELSAT HOTBIRD 13B    
1 29270U 06032A   25322.81199920  .00000175  00000+0  00000+0 0  9995
2 29270   1.1166  84.5682 0003349 149.8457 149.1014  1.00272621 45197
EUTELSAT HOTBIRD 13C    
1 33459U 08065A   25322.79986580 -.00000212  00000+0  00000+0 0  9993
2 33459   2.4078  81.6775 0000990 115.0639 120.8952  1.00054403 45232
EUTELSAT 36B            
1 36101U 09065A   25322.81546588  .00000131  00000+0  00000+0 0  9993
2 36101   0.0422 342.9477 0006122 259.0881 160.1662  1.00273745 58599
EUTELSAT KA-SAT 9A      
1 37258U 10069A   25322.80723250  .00000081  00000+0  00000+0 0  9999
2 37258   0.0578 320.6554 0002469 223.6813 173.4140  1.00271843 41896
EUTELSAT 7 WEST A       
1 37816U 11051A   25322.80402582 -.00000041  00000+0  00000+0 0  9990
2 37816   0.0720  21.1935 0006043 197.1472 121.9100  1.00272599 51769
EUTELSAT 16A            
1 37836U 11057A   25322.59463793  .00000123  00000+0  00000+0 0  9995
2 37836   0.0615 347.1409 0006016 259.3415  41.5120  1.00272890  5211
